{"type": "FeatureCollection", "features": [{"type": "Feature", "properties": {"highway": "tertiary", "source": "bing", "osm_id": 148656785}, "geometry": {"type": "LineString", "coordinates": [[120.1766024, 27.5109148], [120.177413, 27.5104564], [120.1791273, 27.5093467], [120.1804495, 27.5087687], [120.1822834, 27.5078584], [120.1837651, 27.5070211], [120.1849346, 27.5064364], [120.1864163, 27.5056324], [120.1867286, 27.5054996], [120.1873532, 27.5054198], [120.1878117, 27.5053135], [120.1886489, 27.5050012], [120.1901722, 27.5046063], [120.1907408, 27.5044589], [120.1908017, 27.5044431], [120.1911538, 27.5043102], [120.1930958, 27.5031903], [120.1931472, 27.5031607], [120.1938515, 27.5028484], [120.1952136, 27.5021706], [120.1970977, 27.5013339], [120.1974728, 27.5011673], [120.200011, 27.500051], [120.2023565, 27.4990411]]}}, {"type": "Feature", "properties": {"highway": "unclassified", "source": "digitalglobe", "osm_id": 779695488}, "geometry": {"type": "LineString", "coordinates": [[120.1911533, 27.4969145], [120.1911136, 27.496969], [120.1910702, 27.4970653], [120.1910846, 27.4971775], [120.1911678, 27.4972994], [120.1912979, 27.4973988], [120.1914642, 27.4975431], [120.1916125, 27.4977355], [120.1917824, 27.4977804], [120.1918909, 27.4977612], [120.1919595, 27.497774], [120.1921042, 27.4980466], [120.192303, 27.4982903], [120.1923572, 27.4984378], [120.1923825, 27.4985308], [120.1924765, 27.4985821], [120.1925525, 27.4985469], [120.1925705, 27.4984827], [120.1925525, 27.4983961], [120.1925344, 27.4982967], [120.1925633, 27.4982422], [120.192597, 27.4982439], [120.192632, 27.4982839], [120.1926971, 27.498441], [120.19282, 27.4985725], [120.1928959, 27.4987072], [120.1929519, 27.4987206], [120.1929899, 27.4986944], [120.193008, 27.4986302], [120.1929574, 27.4985725], [120.1928562, 27.4983641], [120.1928446, 27.498248], [120.1927898, 27.4981556], [120.1927268, 27.4980171], [120.1927268, 27.4979247], [120.1928222, 27.4978546], [120.192908, 27.4978498], [120.1930904, 27.4978879], [120.193364, 27.4978546], [120.1934606, 27.4978831], [120.1935303, 27.4979355], [120.1937663, 27.4983113], [120.1943028, 27.4986491], [120.1944691, 27.4989774], [120.1947105, 27.4991582], [120.1947802, 27.4993438], [120.1949143, 27.4995103], [120.1949841, 27.4997673], [120.1950431, 27.4997863], [120.1950806, 27.4997815], [120.1951933, 27.4997102], [120.1952201, 27.4996483], [120.1952255, 27.4994675], [120.1952737, 27.4993153], [120.1952737, 27.4991725], [120.1952416, 27.4990108], [120.1951396, 27.4988395], [120.1950914, 27.4986729], [120.1950806, 27.4985635], [120.1951128, 27.4984493], [120.1951611, 27.4983589], [120.1952255, 27.4983113], [120.1953757, 27.498259], [120.1954508, 27.4982067], [120.1957405, 27.4979402], [120.1961213, 27.4976976], [120.1964647, 27.4974073], [120.1966739, 27.4973169], [120.1969153, 27.4972503], [120.1969689, 27.4972218], [120.1971728, 27.497041], [120.1974249, 27.4969791], [120.1975483, 27.4969125], [120.1976609, 27.4966127], [120.197795, 27.4964177], [120.1979881, 27.4962607], [120.1983583, 27.4958277], [120.1984549, 27.4957896], [120.19853, 27.4958134], [120.1985568, 27.495842], [120.1986212, 27.4959799], [120.1986641, 27.4960799], [120.1986748, 27.496194], [120.1985514, 27.496489], [120.1985031, 27.4965604], [120.1983958, 27.4966651], [120.1983315, 27.4967745], [120.1983154, 27.4969077], [120.1983422, 27.4970695], [120.1982135, 27.4973455], [120.1982242, 27.4973883], [120.1982564, 27.4974264], [120.1983368, 27.4974026], [120.198487, 27.4972408], [120.1985782, 27.4970885], [120.1988089, 27.4965556], [120.1990986, 27.4964367], [120.1991683, 27.4963844], [120.1992273, 27.4962987], [120.1992649, 27.4961655], [120.1992273, 27.4959181], [120.1992273, 27.4957849], [120.1992649, 27.4956469], [120.1993454, 27.4955279], [120.1994473, 27.4954137], [120.1995492, 27.4953424], [120.1996565, 27.4953043], [120.1999408, 27.4952472], [120.2000159, 27.4952091], [120.2000964, 27.4951473], [120.2003914, 27.4948237], [120.2004236, 27.4947333], [120.2004075, 27.4944574], [120.2005041, 27.4941243], [120.2005631, 27.4940577], [120.2008098, 27.4940006], [120.200842, 27.4939435], [120.2007991, 27.4936914], [120.2007616, 27.4936343], [120.2006382, 27.4935534], [120.2005899, 27.493482], [120.2006328, 27.4933964], [120.2009118, 27.4931299], [120.2011639, 27.4929729], [120.2012605, 27.4928302], [120.2013195, 27.4927826], [120.2014321, 27.4927683], [120.2016199, 27.4927873], [120.2019417, 27.4927112], [120.2021188, 27.4926065], [120.20221, 27.4924876], [120.2022797, 27.4924448], [120.2023548, 27.492459], [120.2024138, 27.4925257], [120.2024996, 27.4926684], [120.2027035, 27.4928968], [120.2027679, 27.4929111], [120.2029288, 27.4929063], [120.2029932, 27.4928825], [120.2030254, 27.4928444], [120.2030575, 27.4927588], [120.2030575, 27.4926922], [120.2030093, 27.4926113], [120.2028537, 27.4924923], [120.2026498, 27.4922735], [120.2024245, 27.4921117], [120.2023494, 27.4920879], [120.2022207, 27.4920927], [120.2021027, 27.4921307], [120.2020544, 27.4921831], [120.2020115, 27.492283], [120.2019578, 27.4923496], [120.2018291, 27.4924305], [120.2016735, 27.4924686], [120.201593, 27.4924495], [120.2014697, 27.4922687], [120.2010995, 27.492126], [120.2010191, 27.4921212], [120.2009708, 27.492145], [120.200944, 27.4921878], [120.2008903, 27.4923591], [120.2008367, 27.4924495], [120.2006596, 27.4926161], [120.2005684, 27.4926636], [120.2005255, 27.4926303], [120.2005094, 27.4925685], [120.2005148, 27.4922545], [120.200488, 27.4919214], [120.2004558, 27.4918215], [120.2003968, 27.4917406], [120.2003914, 27.4916787], [120.2004504, 27.4916787], [120.2005845, 27.491831], [120.2006275, 27.4918595], [120.2006757, 27.4918643], [120.2009922, 27.4916645], [120.2013409, 27.4915408], [120.2013785, 27.4914837], [120.2013785, 27.4914408], [120.2013302, 27.4913837], [120.2012336, 27.4913409], [120.2011478, 27.4912743], [120.2010942, 27.4911649], [120.2010942, 27.491065], [120.2012068, 27.4908556], [120.2015823, 27.4905654], [120.2019793, 27.4903798], [120.2020383, 27.4903227], [120.2021724, 27.4901229], [120.2022636, 27.4900277], [120.2024675, 27.4898755], [120.2026337, 27.4896852], [120.2027732, 27.489433], [120.2028698, 27.4893854], [120.2030522, 27.4893378], [120.2032185, 27.4893235], [120.2033419, 27.4892712], [120.203433, 27.4891618], [120.2036047, 27.4887859]]}}, {"type": "Feature", "properties": {"highway": "unclassified", "source": "digitalglobe", "osm_id": 779695491}, "geometry": {"type": "LineString", "coordinates": [[120.2037925, 27.4970362], [120.2034009, 27.4972218], [120.2025801, 27.4977118], [120.2022582, 27.4978355], [120.2020276, 27.4978926], [120.2017111, 27.4980068], [120.2009386, 27.4984398], [120.2007026, 27.4985254], [120.1999891, 27.4987015]]}}, {"type": "Feature", "properties": {"highway": "unclassified", "source": "digitalglobe", "osm_id": 779695493}, "geometry": {"type": "LineString", "coordinates": [[120.2037066, 27.4968744], [120.2036584, 27.4968982], [120.2032828, 27.4969743], [120.2030683, 27.4969981]]}}, {"type": "Feature", "properties": {"highway": "unclassified", "source": "digitalglobe", "osm_id": 779695494}, "geometry": {"type": "LineString", "coordinates": [[120.2037925, 27.4970362], [120.2037388, 27.4969125], [120.2037066, 27.4968744]]}}, {"type": "Feature", "properties": {"highway": "unclassified", "source": "digitalglobe", "osm_id": 779695495}, "geometry": {"type": "LineString", "coordinates": [[120.2050209, 27.4963653], [120.2047795, 27.4963415], [120.2045435, 27.496313], [120.2044147, 27.4963415], [120.2043128, 27.4963844], [120.2041519, 27.4965081], [120.2039695, 27.4965652], [120.2038729, 27.4965985], [120.2037764, 27.4966698], [120.2036959, 27.4967412], [120.2037013, 27.4968078], [120.2037066, 27.4968744]]}}, {"type": "Feature", "properties": {"highway": "unclassified", "source": "digitalglobe", "osm_id": 779695496}, "geometry": {"type": "LineString", "coordinates": [[120.2023565, 27.4990411], [120.203429, 27.498397], [120.203912, 27.4980227], [120.2047058, 27.497642], [120.2056927, 27.4973279], [120.2063953, 27.4972232]]}}, {"type": "Feature", "properties": {"highway": "unclassified", "source": "digitalglobe", "osm_id": 779695497}, "geometry": {"type": "LineString", "coordinates": [[120.1949143, 27.4995103], [120.1948581, 27.4994897], [120.1948057, 27.4994484], [120.1947115, 27.4993437], [120.1946578, 27.4992686], [120.1945874, 27.4992369], [120.1945039, 27.4991924], [120.1943489, 27.499149], [120.1942833, 27.4991036], [120.194238, 27.4990274], [120.1941581, 27.4989311], [120.194034, 27.4988581], [120.1938838, 27.4988528], [120.1937991, 27.4988634], [120.1937776, 27.4988751], [120.1937359, 27.4989142], [120.1936774, 27.4990718], [120.1936548, 27.4992548], [120.1936643, 27.499313], [120.1936703, 27.4993945], [120.193749, 27.4995817], [120.1938563, 27.4998102], [120.1939231, 27.4999467], [120.1939768, 27.4999636], [120.1940173, 27.4999594], [120.1940386, 27.499917], [120.1940269, 27.4998864], [120.1939828, 27.4997996], [120.1939005, 27.4996568], [120.1937633, 27.4994114], [120.193749, 27.4993014], [120.1937646, 27.4991856], [120.1938319, 27.4991154], [120.1938856, 27.4991065], [120.1939058, 27.4991535], [120.1938987, 27.4992175], [120.1938629, 27.4992772], [120.1938629, 27.4993676], [120.1938951, 27.4994342], [120.194099, 27.4997149], [120.1942331, 27.4998291], [120.1942974, 27.4999195], [120.1943189, 27.4999813], [120.1943135, 27.5000479], [120.1941955, 27.500224], [120.1941794, 27.5003096], [120.1943296, 27.5004666], [120.1945871, 27.5005904], [120.1946193, 27.5006474], [120.1945549, 27.5006808], [120.1944852, 27.500676], [120.1941955, 27.5005523], [120.1940882, 27.500538], [120.1939541, 27.5005523], [120.1937717, 27.5006617], [120.193643, 27.5007141], [120.1931495, 27.5007807], [120.1929402, 27.5008378], [120.1928491, 27.5009282], [120.1928222, 27.5010471], [120.1927847, 27.5011232], [120.1925755, 27.5011899], [120.1921731, 27.5014135], [120.1920658, 27.5014563], [120.1918888, 27.5014944], [120.1912075, 27.5014848], [120.1910627, 27.5014848]]}}, {"type": "Feature", "properties": {"highway": "unclassified", "source": "digitalglobe", "osm_id": 779695498}, "geometry": {"type": "LineString", "coordinates": [[120.1904297, 27.5011185], [120.1908481, 27.5009853], [120.1909447, 27.5009805], [120.1910091, 27.5010376], [120.1910627, 27.5014848], [120.1910091, 27.5018893], [120.1904243, 27.502009]]}}, {"type": "Feature", "properties": {"highway": "unclassified", "source": "digitalglobe", "osm_id": 779695499}, "geometry": {"type": "LineString", "coordinates": [[120.1904243, 27.502009], [120.1901668, 27.5020756], [120.1900649, 27.5021421], [120.1895607, 27.5025893]]}}, {"type": "Feature", "properties": {"highway": "unclassified", "source": "digitalglobe", "osm_id": 779695500}, "geometry": {"type": "LineString", "coordinates": [[120.189609, 27.5032266], [120.1896573, 27.503103], [120.1897216, 27.5029174], [120.1897324, 27.5028366], [120.1895607, 27.5025893], [120.1889868, 27.5021754], [120.1888795, 27.5020423], [120.1888312, 27.5019329], [120.1887561, 27.5018282], [120.1887293, 27.5017426], [120.1887561, 27.5015999], [120.1888044, 27.5015428], [120.188901, 27.5014762], [120.1889385, 27.5014144], [120.1890029, 27.5012004], [120.1889707, 27.5010386], [120.1890029, 27.5009007], [120.1891423, 27.5006629], [120.1892174, 27.5004203], [120.1891423, 27.5001301]]}}, {"type": "Feature", "properties": {"highway": "unclassified", "source": "digitalglobe", "osm_id": 779695501}, "geometry": {"type": "LineString", "coordinates": [[120.1900971, 27.5035073], [120.189609, 27.5032266]]}}, {"type": "Feature", "properties": {"highway": "unclassified", "source": "digitalglobe", "osm_id": 779695502}, "geometry": {"type": "LineString", "coordinates": [[120.1900971, 27.5035073], [120.1904458, 27.5038162]]}}, {"type": "Feature", "properties": {"highway": "unclassified", "source": "digitalglobe", "osm_id": 779695503}, "geometry": {"type": "LineString", "coordinates": [[120.1915079, 27.5032358], [120.1910681, 27.5034832], [120.1904458, 27.5038162], [120.1905039, 27.5039318]]}}, {"type": "Feature", "properties": {"highway": "unclassified", "source": "digitalglobe", "osm_id": 779695504}, "geometry": {"type": "LineString", "coordinates": [[120.189609, 27.5032266], [120.1891799, 27.5038497], [120.1891209, 27.503864], [120.1889224, 27.5038592], [120.1887937, 27.5038783], [120.1884772, 27.5040019], [120.1883056, 27.5041113], [120.1882251, 27.5041399], [120.1878067, 27.5042207], [120.1875546, 27.5043159], [120.1871953, 27.5045299]]}}, {"type": "Feature", "properties": {"highway": "unclassified", "source": "digitalglobe", "osm_id": 779695505}, "geometry": {"type": "LineString", "coordinates": [[120.190891, 27.504844], [120.1908017, 27.5044431]]}}, {"type": "Feature", "properties": {"highway": "unclassified", "source": "digitalglobe", "osm_id": 779695506}, "geometry": {"type": "LineString", "coordinates": [[120.1916152, 27.5049106], [120.1912344, 27.5048059], [120.190891, 27.504844]]}}, {"type": "Feature", "properties": {"highway": "unclassified", "source": "digitalglobe", "osm_id": 779695507}, "geometry": {"type": "LineString", "coordinates": [[120.190891, 27.504844], [120.1906389, 27.5051818], [120.1902527, 27.5052294]]}}, {"type": "Feature", "properties": {"highway": "unclassified", "source": "digitalglobe", "osm_id": 779695508}, "geometry": {"type": "LineString", "coordinates": [[120.1902527, 27.5052294], [120.1899308, 27.5052389], [120.1894534, 27.5052009], [120.1889171, 27.5052817], [120.1888473, 27.5053246], [120.1888741, 27.5053721], [120.1890941, 27.5055434], [120.1894159, 27.5057004]]}}, {"type": "Feature", "properties": {"highway": "unclassified", "source": "digitalglobe", "osm_id": 779695509}, "geometry": {"type": "LineString", "coordinates": [[120.1902527, 27.5052294], [120.1902848, 27.5056529], [120.1903278, 27.5060256]]}}, {"type": "Feature", "properties": {"highway": "unclassified", "source": "digitalglobe", "osm_id": 779695510}, "geometry": {"type": "LineString", "coordinates": [[120.1902527, 27.5052294], [120.1901722, 27.5046063]]}}, {"type": "Feature", "properties": {"highway": "unclassified", "source": "digitalglobe", "osm_id": 779695511}, "geometry": {"type": "LineString", "coordinates": [[120.192672, 27.5051675], [120.1921892, 27.5055101], [120.1914811, 27.5056053], [120.1902848, 27.5056529]]}}, {"type": "Feature", "properties": {"highway": "unclassified", "source": "digitalglobe", "osm_id": 779695512}, "geometry": {"type": "LineString", "coordinates": [[120.1894159, 27.5057004], [120.1894642, 27.5056814], [120.1896251, 27.5056624], [120.1902848, 27.5056529]]}}, {"type": "Feature", "properties": {"highway": "unclassified", "source": "digitalglobe", "osm_id": 779695513}, "geometry": {"type": "LineString", "coordinates": [[120.1896787, 27.506024], [120.1895071, 27.505886], [120.1894159, 27.5057004]]}}, {"type": "Feature", "properties": {"highway": "unclassified", "source": "digitalglobe", "osm_id": 779695514}, "geometry": {"type": "LineString", "coordinates": [[120.1895071, 27.505886], [120.1893837, 27.5059907], [120.1891262, 27.5063666], [120.1889975, 27.5065997], [120.18896, 27.5067995], [120.1888527, 27.5069328], [120.1887025, 27.507204], [120.1886596, 27.5072753], [120.1884665, 27.5074561], [120.1883592, 27.5075465], [120.1882144, 27.5076797], [120.188209, 27.5077464], [120.1882305, 27.5082792], [120.1880642, 27.5084363], [120.1876887, 27.5083411], [120.1875868, 27.5082888]]}}, {"type": "Feature", "properties": {"highway": "unclassified", "source": "digitalglobe", "osm_id": 779695515}, "geometry": {"type": "LineString", "coordinates": [[120.1914811, 27.5056053], [120.1914919, 27.5059859], [120.1914758, 27.5060002], [120.1911593, 27.5060335], [120.1903278, 27.5060256]]}}, {"type": "Feature", "properties": {"highway": "unclassified", "source": "digitalglobe", "osm_id": 779696040}, "geometry": {"type": "LineString", "coordinates": [[120.1930475, 27.50394], [120.1930904, 27.5036926], [120.1933372, 27.5034166], [120.1935786, 27.5032358], [120.1939273, 27.5030788], [120.1941311, 27.5030074], [120.1945335, 27.5028266], [120.1946783, 27.5027743], [120.1950485, 27.5025697], [120.1951879, 27.5025079], [120.195381, 27.5023794], [120.196057, 27.5020654], [120.1962823, 27.5020273], [120.1962662, 27.5020796], [120.1960087, 27.5024032], [120.1959765, 27.5024841], [120.196014, 27.5025412], [120.1960462, 27.5026316], [120.1962125, 27.5026458], [120.19669, 27.5027695], [120.196985, 27.5027838], [120.1971996, 27.5027315], [120.1975429, 27.5027981], [120.1976663, 27.5027791], [120.1978916, 27.5026982], [120.1980203, 27.5026696], [120.1984173, 27.5026744], [120.1986265, 27.5026458], [120.1988089, 27.5026411], [120.1989376, 27.5026791], [120.1991469, 27.5028124], [120.1993239, 27.5029979], [120.1994848, 27.5031549], [120.1996189, 27.5032073], [120.1998174, 27.5032406], [120.1999462, 27.5032358], [120.200032, 27.5031882], [120.2000695, 27.5031264], [120.2001017, 27.5029599], [120.2001285, 27.5029028], [120.2001661, 27.5028695], [120.2002251, 27.5028647], [120.200327, 27.5029123], [120.2006167, 27.5031169], [120.2008474, 27.5033357], [120.2011907, 27.5035546], [120.2012122, 27.5037354], [120.2010137, 27.5041351], [120.200901, 27.5042397], [120.2006489, 27.5043539], [120.2005792, 27.504411], [120.2005255, 27.5045062], [120.2004772, 27.5046775], [120.2003056, 27.5048535], [120.2000481, 27.5049296], [120.2000052, 27.5049629], [120.1999676, 27.5050629], [120.1999569, 27.5052199], [120.1999354, 27.5052817], [120.1999032, 27.5053293], [120.1997745, 27.505434], [120.1997101, 27.5055291], [120.1996887, 27.5056624], [120.199796, 27.5058717], [120.1998013, 27.5060382], [120.1998389, 27.5061762], [120.1999193, 27.5062571], [120.1999676, 27.5062809], [120.2001446, 27.5062856], [120.2003002, 27.5062523], [120.2006489, 27.5060763], [120.2007884, 27.5060525], [120.2009332, 27.5060049], [120.2010405, 27.5060049], [120.2013302, 27.5060763], [120.2014696, 27.5060763], [120.201593, 27.5061096], [120.2017861, 27.5063713], [120.2019954, 27.5064902]]}}, {"type": "Feature", "properties": {"highway": "unclassified", "source": "digitalglobe", "osm_id": 779696041}, "geometry": {"type": "LineString", "coordinates": [[120.1970977, 27.5013339], [120.1973337, 27.5018845], [120.1973122, 27.5019321], [120.1965612, 27.5023413], [120.196014, 27.5025412]]}}, {"type": "Feature", "properties": {"highway": "unclassified", "source": "digitalglobe", "osm_id": 779696042}, "geometry": {"type": "LineString", "coordinates": [[120.1939273, 27.5030788], [120.1938515, 27.5028484]]}}, {"type": "Feature", "properties": {"highway": "unclassified", "source": "digitalglobe", "osm_id": 779696043}, "geometry": {"type": "LineString", "coordinates": [[120.1939273, 27.5030788], [120.1941204, 27.5034547]]}}, {"type": "Feature", "properties": {"highway": "unclassified", "source": "digitalglobe", "osm_id": 779696044}, "geometry": {"type": "LineString", "coordinates": [[120.1930958, 27.5031903], [120.1932138, 27.5027886], [120.1931977, 27.5027362]]}}, {"type": "Feature", "properties": {"highway": "unclassified", "source": "digitalglobe", "osm_id": 779696045}, "geometry": {"type": "LineString", "coordinates": [[120.1922858, 27.5048725], [120.1923716, 27.5045252], [120.1927149, 27.5038543], [120.1928115, 27.5036164]]}}, {"type": "Feature", "properties": {"highway": "unclassified", "source": "digitalglobe", "osm_id": 779696046}, "geometry": {"type": "LineString", "coordinates": [[120.1954991, 27.5072563], [120.1950485, 27.5067662], [120.1948231, 27.5065521], [120.194394, 27.5061905], [120.1939327, 27.5056623], [120.1938951, 27.5056005], [120.1936001, 27.5054673], [120.192672, 27.5051675], [120.1924682, 27.5049915], [120.1922858, 27.5048725], [120.1919639, 27.5047964]]}}, {"type": "Feature", "properties": {"highway": "unclassified", "source": "digitalglobe", "osm_id": 779696047}, "geometry": {"type": "LineString", "coordinates": [[120.1919639, 27.5047964], [120.191862, 27.5049487], [120.1917923, 27.5049582], [120.1916152, 27.5049106], [120.1917762, 27.5045728], [120.191862, 27.5044538], [120.1919478, 27.5043682], [120.1920068, 27.5043397]]}}, {"type": "Feature", "properties": {"highway": "unclassified", "source": "digitalglobe", "osm_id": 779696048}, "geometry": {"type": "LineString", "coordinates": [[120.1919639, 27.5047964], [120.1920068, 27.5045966], [120.1920068, 27.5043397], [120.192098, 27.5040827]]}}, {"type": "Feature", "properties": {"highway": "unclassified", "source": "digitalglobe", "osm_id": 779696049}, "geometry": {"type": "LineString", "coordinates": [[120.1904243, 27.5032977], [120.1900971, 27.5035073], [120.1899469, 27.5036545], [120.1898611, 27.5037116]]}}, {"type": "Feature", "properties": {"highway": "unclassified", "source": "digitalglobe", "osm_id": 779696050}, "geometry": {"type": "LineString", "coordinates": [[120.196985, 27.5027838], [120.1969689, 27.5028457], [120.1966417, 27.5031978], [120.1960838, 27.5036831], [120.195719, 27.5040542], [120.1955152, 27.5042159], [120.1953918, 27.5042302], [120.1951557, 27.5042159], [120.1949894, 27.5042588], [120.1947856, 27.5041779], [120.1946515, 27.5040589], [120.1944959, 27.5039685], [120.1944208, 27.5038686], [120.1947373, 27.5036831]]}}, {"type": "Feature", "properties": {"highway": "unclassified", "source": "digitalglobe", "osm_id": 779696051}, "geometry": {"type": "LineString", "coordinates": [[120.1951557, 27.5042159], [120.1949412, 27.5038877]]}}, {"type": "Feature", "properties": {"highway": "unclassified", "source": "digitalglobe", "osm_id": 779696052}, "geometry": {"type": "LineString", "coordinates": [[120.1967597, 27.5039257], [120.1965558, 27.5039923], [120.1963627, 27.5041541], [120.1962394, 27.5042112], [120.1960623, 27.5041969], [120.195719, 27.5040542]]}}, {"type": "Feature", "properties": {"highway": "unclassified", "source": "digitalglobe", "osm_id": 779696053}, "geometry": {"type": "LineString", "coordinates": [[120.1927149, 27.5038543], [120.1929027, 27.503921], [120.1930475, 27.50394]]}}, {"type": "Feature", "properties": {"highway": "unclassified", "source": "digitalglobe", "osm_id": 779696054}, "geometry": {"type": "LineString", "coordinates": [[120.1930475, 27.50394], [120.1931226, 27.5041589], [120.1931655, 27.5043063]]}}, {"type": "Feature", "properties": {"highway": "unclassified", "source": "digitalglobe", "osm_id": 779696055}, "geometry": {"type": "LineString", "coordinates": [[120.1914811, 27.5056053], [120.1914382, 27.5054007]]}}, {"type": "Feature", "properties": {"highway": "unclassified", "source": "digitalglobe", "osm_id": 779696056}, "geometry": {"type": "LineString", "coordinates": [[120.1970601, 27.5084219], [120.1971137, 27.5080413], [120.1969206, 27.5079795], [120.19669, 27.507832], [120.1966202, 27.5076512], [120.1961964, 27.5072467], [120.1960033, 27.5070564], [120.1958102, 27.5067709], [120.1955634, 27.506514], [120.19463, 27.5057718], [120.1945657, 27.5056861], [120.1943243, 27.5055577], [120.1941043, 27.5053959], [120.1940614, 27.5052341], [120.1940775, 27.5049867]]}}, {"type": "Feature", "properties": {"highway": "unclassified", "source": "digitalglobe", "osm_id": 779696057}, "geometry": {"type": "LineString", "coordinates": [[120.1941043, 27.5053959], [120.1940507, 27.505434], [120.1938951, 27.5056005]]}}, {"type": "Feature", "properties": {"highway": "unclassified", "source": "digitalglobe", "osm_id": 779696058}, "geometry": {"type": "LineString", "coordinates": [[120.2011907, 27.5035546], [120.202049, 27.5033357], [120.2022797, 27.5033214], [120.2024621, 27.503388], [120.2029288, 27.5037211], [120.203036, 27.5037782], [120.2032399, 27.5038305], [120.203492, 27.5038163], [120.2036583, 27.5037782], [120.2038675, 27.5036926], [120.2040499, 27.5035831], [120.2041733, 27.503488], [120.2042699, 27.5033547], [120.2043342, 27.5031549], [120.2044201, 27.5029741], [120.204699, 27.5026648], [120.204817, 27.502584], [120.204919, 27.5025602], [120.2052462, 27.502584], [120.206362, 27.5025316], [120.2066624, 27.502603], [120.2069521, 27.5027457], [120.207054, 27.5028361], [120.2071506, 27.5029503], [120.2072257, 27.5029979], [120.2074027, 27.5030455], [120.2079177, 27.5031406], [120.2080089, 27.5031359], [120.2089905, 27.50276], [120.209189, 27.5027315], [120.2093446, 27.502622], [120.2099561, 27.5019083], [120.21016, 27.5017228], [120.2103316, 27.5016276], [120.2104067, 27.5016181], [120.210557, 27.5016562], [120.2112919, 27.5019892], [120.2114743, 27.5020558], [120.2115869, 27.5020558], [120.2116459, 27.5020082], [120.2117049, 27.5018941], [120.2117264, 27.5018036], [120.2117264, 27.5017132], [120.2116781, 27.50158], [120.2116084, 27.5014896], [120.2111578, 27.5010709], [120.2110022, 27.50099], [120.2107608, 27.5009377], [120.2106857, 27.5008806], [120.2106911, 27.5008045], [120.210734, 27.5007759], [120.2108091, 27.5007569], [120.2110022, 27.500795], [120.2114153, 27.500952], [120.21178, 27.5010519], [120.2122897, 27.5011566], [120.2129441, 27.501266], [120.2135986, 27.5013945], [120.2153152, 27.5019464], [120.2162861, 27.5022557], [120.2165329, 27.5022937], [120.2166509, 27.5023318], [120.2174234, 27.5024936], [120.2178311, 27.5026839], [120.2180564, 27.5028314], [120.2182442, 27.5029027], [120.2185285, 27.5029265], [120.2188181, 27.502898], [120.2192044, 27.5027695], [120.2193331, 27.5027552], [120.2196711, 27.5030883], [120.2197033, 27.5031502], [120.2201968, 27.5035879], [120.2207332, 27.5040066], [120.2210551, 27.5042302]]}}, {"type": "Feature", "properties": {"highway": "unclassified", "source": "digitalglobe", "osm_id": 779696449}, "geometry": {"type": "LineString", "coordinates": [[120.2123916, 27.5173384], [120.2119195, 27.5171147], [120.2099991, 27.5166152], [120.2098703, 27.5165343], [120.2097469, 27.5161632], [120.2096879, 27.5160775], [120.2096182, 27.5160252], [120.2094841, 27.5159919], [120.2089905, 27.5160347], [120.2086258, 27.515949], [120.2080786, 27.5155161], [120.2078855, 27.5152068], [120.207231, 27.5149261], [120.2070969, 27.5148547], [120.2068555, 27.5146549], [120.2066248, 27.5143932], [120.2064907, 27.5142933], [120.2061742, 27.5142172], [120.2057183, 27.5140363], [120.2053159, 27.5137604], [120.2048385, 27.5134844], [120.2047366, 27.513375], [120.204581, 27.513099], [120.2044362, 27.5126803], [120.2040392, 27.5123045], [120.2033096, 27.5119143], [120.2028054, 27.5112672], [120.2026498, 27.5110103], [120.202226, 27.5107772], [120.2019149, 27.5103442], [120.2011317, 27.5096067], [120.2008635, 27.5092736], [120.2007293, 27.5091928], [120.2000534, 27.5089644], [120.1998603, 27.5089453], [120.1993239, 27.5089549], [120.1980901, 27.5090643], [120.1977414, 27.50905], [120.1976985, 27.5090215], [120.1974892, 27.5087931], [120.1972747, 27.5086266], [120.1970601, 27.5084219], [120.1967919, 27.508165], [120.1964539, 27.5079795], [120.1962662, 27.507851], [120.1959228, 27.5074561], [120.1955795, 27.5072753], [120.1954991, 27.5072563]]}}, {"type": "Feature", "properties": {"highway": "unclassified", "source": "digitalglobe", "osm_id": 779696450}, "geometry": {"type": "LineString", "coordinates": [[120.1959228, 27.5074561], [120.1961964, 27.5072467]]}}, {"type": "Feature", "properties": {"highway": "unclassified", "source": "digitalglobe", "osm_id": 1412740962}, "geometry": {"type": "LineString", "coordinates": [[120.1906443, 27.5042111], [120.1907408, 27.5044589]]}}, {"type": "Feature", "properties": {"bridge": "yes", "highway": "unclassified", "layer": "1", "source": "digitalglobe", "osm_id": 1412740963}, "geometry": {"type": "LineString", "coordinates": [[120.1905039, 27.5039318], [120.1906443, 27.5042111]]}}]}